APRIZESAT 2             
1 28366U 04025A   23080.85432783  .00000351  00000+0  12478-3 0  9992
2 28366  98.1291 300.2577 0106465 219.9085 139.4241 14.36957678981656
SAUDICOMSAT 1           
1 28369U 04025D   23080.83255308  .00001047  00000+0  26263-3 0  9999
2 28369  98.4824  49.8589 0034335  47.3014 313.1064 14.53131454992127
SAUDICOMSAT 2           
1 28370U 04025E   23080.81126049  .00000704  00000+0  19864-3 0  9996
2 28370  98.5744  49.5551 0056244 241.3003 118.2529 14.48000371988766
APRIZESAT 1             
1 28372U 04025G   23080.81906166  .00000599  00000+0  16458-3 0  9992
2 28372  98.5355  49.4802 0046755 150.3700 210.0157 14.50051441990299
NANOSAT-1               
1 28493U 04049B   23080.83659894  .00001927  00000+0  29634-3 0  9993
2 28493  98.1157 187.0129 0005492 121.4522 238.7224 14.74674773980739
SAUDICOMSAT 7           
1 31119U 07012C   23080.82944891  .00001495  00000+0  29724-3 0  9998
2 31119  98.2202  29.6526 0058119 303.8420  55.7258 14.62576500849249
SAUDICOMSAT 6           
1 31121U 07012E   23080.84361022  .00001465  00000+0  30766-3 0  9997
2 31121  98.2579  24.8725 0076906  50.5523 310.2449 14.59295212847390
SAUDICOMSAT 5           
1 31124U 07012H   23080.84018425  .00001321  00000+0  25539-3 0  9999
2 31124  98.1899  30.9963 0049476 245.8434 113.7591 14.64341141850174
SAUDICOMSAT 3           
1 31125U 07012J   23081.36834647  .00001476  00000+0  27352-3 0  9996
2 31125  98.1563  32.6927 0042214 185.9735 174.0971 14.66236006851294
SAUDICOMSAT 4           
1 31127U 07012L   23081.39150084  .00001696  00000+0  34458-3 0  9996
2 31127  98.2421  28.6680 0067140 353.1761   6.8519 14.61065577848513
APRIZESAT 4             
1 35684U 09041D   23081.06910315  .00001227  00000+0  16643-3 0  9993
2 35684  98.2942 109.0579 0046422 179.2357 180.8933 14.80146009736174
APRIZESAT 3             
1 35686U 09041F   23081.24494414  .00001946  00000+0  20484-3 0  9998
2 35686  98.0949 179.0581 0070747 359.0691   1.0382 14.88823948739972
AISSAT 1                
1 36797U 10035C   23081.13058422  .00002873  00000+0  31719-3 0  9993
2 36797  98.2330 280.5044 0010476 352.6069   7.4990 14.88266735687854
S-NET D                 
1 43186U 18014G   23081.20390917  .00005555  00000+0  45443-3 0  9993
2 43186  97.6405 346.5893 0012492  91.4320 268.8335 14.99678725280519
S-NET B                 
1 43187U 18014H   23081.20457724  .00005542  00000+0  45340-3 0  9996
2 43187  97.6399 346.5268 0012657  91.2135 269.0539 14.99673947280513
S-NET A                 
1 43188U 18014J   23081.27155571  .00005609  00000+0  45880-3 0  9992
2 43188  97.6407 346.6733 0012633  91.0663 269.2008 14.99676198280525
S-NET C                 
1 43189U 18014K   23081.20635259  .00005545  00000+0  45368-3 0  9992
2 43189  97.6402 346.5122 0012967  90.5643 269.7066 14.99667644279066
SALSAT                  
1 46495U 20068K   23080.82384809  .00006363  00000+0  43108-3 0  9995
2 46495  97.7616  28.0111 0017672  60.5512 299.7476 15.06705335135919
